OBJECT_NAME,OBJECT_ID,EPOCH,MEAN_MOTION,ECCENTRICITY,INCLINATION,RA_OF_ASC_NODE,ARG_OF_PERICENTER,MEAN_ANOMALY,EPHEMERIS_TYPE,CLASSIFICATION_TYPE,NORAD_CAT_ID,ELEMENT_SET_NO,REV_AT_EPOCH,BSTAR,MEAN_MOTION_DOT,MEAN_MOTION_DDOT
ONEWEB-0578,2023-043X,2026-06-09T23:41:29.947488,13.21824315,.00023572,87.9258,245.4048,100.8262,259.3137,0,U,56067,999,15728,-.38626082E-4,-.3E-7,0
ONEWEB-0579,2023-043Y,2026-06-09T23:29:24.972864,13.21826074,.00017392,87.9263,245.4030,99.3286,260.8045,0,U,56068,999,15729,-.693096E-5,.1E-6,0
ONEWEB-0581,2023-043Z,2026-06-10T03:48:16.794144,13.16596094,.00022534,87.9097,230.1798,84.1787,275.9601,0,U,56069,999,15803,.34605942E-4,.26E-6,0
ONEWEB-0609,2023-043AA,2026-06-10T00:46:04.176192,13.15548570,.00019872,87.8998,260.6373,103.3420,256.7932,0,U,56070,999,15549,.34411615E-3,.142E-5,0
ONEWEB-0613,2023-043AB,2026-06-10T00:42:38.378304,13.15549628,.00017095,87.8999,260.6500,104.7009,255.4311,0,U,56071,999,15549,.28521708E-3,.12E-5,0
ONEWEB-0630,2023-043AC,2026-06-10T00:35:46.534560,13.15550273,.00017136,87.9002,260.6222,103.5310,256.6012,0,U,56072,999,15548,.19446211E-3,.86E-6,0
ONEWEB-0632,2023-043AD,2026-06-10T00:28:57.532512,13.15554376,.00019011,87.8999,260.6404,96.4402,263.6945,0,U,56073,999,15548,-.36304682E-2,-.1354E-4,0
ONEWEB-0633,2023-043AE,2026-06-10T00:19:48.366336,13.15548333,.0001692,87.9007,260.6173,111.9335,248.1975,0,U,56074,999,15546,-.1242028E-3,-.34E-6,0
ONEWEB-0634,2023-043AF,2026-06-09T23:59:17.857536,13.15547986,.00022355,87.9000,260.6613,106.5182,253.6194,0,U,56075,999,15545,-.31099417E-3,-.104E-5,0
ONEWEB-0635,2023-043AG,2026-06-09T23:52:26.247936,13.15550405,.00020134,87.9008,260.6238,92.8625,267.2736,0,U,56076,999,15548,-.48723116E-3,-.171E-5,0
ONEWEB-0636,2023-043AH,2026-06-09T23:41:02.805792,13.15549306,.0002039,87.9005,260.6321,94.6862,265.4501,0,U,56077,999,15546,-.50537401E-3,-.177E-5,0
ONEWEB-0637,2023-043AJ,2026-06-09T23:31:55.411680,13.15548601,.00022752,87.9003,260.6502,98.6906,261.4482,0,U,56078,999,15548,-.4264454E-4,-.3E-7,0
ONEWEB-0647,2023-043AK,2026-06-09T23:25:04.913184,13.15548918,.00018448,87.9002,260.6635,96.8349,263.2991,0,U,56079,999,15547,-.10210893E-3,-.26E-6,0
ONEWEB-0651,2023-043AL,2026-06-10T06:36:19.395936,13.15548909,.00021299,87.9000,260.5976,95.4476,264.6897,0,U,56080,999,15671,.49506964E-3,.199E-5,0
ONEWEB-0718,2023-043AM,2026-06-09T19:32:18.939840,13.15550919,.00022282,87.9000,260.6701,112.7127,247.4239,0,U,56081,999,15546,.9193643E-4,.47E-6,0
ONEWEB-0561,2023-068A,2026-06-10T01:50:10.130496,13.20933111,.00016117,87.9188,275.8602,63.0827,297.0471,0,U,56710,999,14856,-.80442388E-1,-.32655E-3,0
ONEWEB-0668,2023-068B,2026-06-09T21:43:31.142784,13.16594218,.00025604,87.9100,230.2182,103.3653,256.7764,0,U,56711,999,15082,-.21792917E-3,-.7E-6,0
ONEWEB-0676,2023-068C,2026-06-10T03:23:12.129504,13.16594264,.00021408,87.9101,230.1774,89.3711,270.7665,0,U,56712,999,15077,-.60555653E-3,-.219E-5,0
ONEWEB-0677,2023-068D,2026-06-10T01:33:13.440960,13.20769590,.00023209,87.9190,275.8542,95.1718,264.9681,0,U,56713,999,14886,-.69764351E-4,-.15E-6,0
ONEWEB-0678,2023-068E,2026-06-10T00:15:15.894432,13.15548155,.00016695,87.9007,260.6225,99.3890,260.7429,0,U,56714,999,14834,-.13956387E-3,-.4E-6,0
ONEWEB-0679,2023-068F,2026-06-10T04:13:22.932768,13.16593920,.00025951,87.9102,230.1621,94.8661,265.2766,0,U,56715,999,15080,.19295E-3,.87E-6,0
ONEWEB-0680,2023-068G,2026-06-10T04:58:49.658880,13.21827382,.00026345,87.9262,245.3590,102.3507,257.7922,0,U,56716,999,15017,-.81782141E-4,-.21E-6,0
ONEWEB-0681,2023-068H,2026-06-10T04:30:58.187808,13.21826711,.00022569,87.9258,245.3645,74.2566,285.8817,0,U,56717,999,15016,.2002249E-3,.96E-6,0
ONEWEB-0682,2023-068J,2026-06-09T19:20:56.258880,13.15548549,.00025018,87.9007,260.6639,103.1450,256.9959,0,U,56718,999,14848,.1501981E-3,.69E-6,0
ONEWEB-0683,2023-068K,2026-06-09T23:34:12.409248,13.15548629,.00022001,87.9012,260.6282,105.3457,254.7916,0,U,56719,999,14847,-.6074217E-5,.11E-6,0
ONEWEB-0684,2023-068L,2026-06-09T23:45:36.338688,13.15548335,.00010555,87.9008,260.6168,140.7859,219.3348,0,U,56720,999,14830,-.42887249E-3,-.149E-5,0
ONEWEB-0686,2023-068M,2026-06-09T21:48:04.993632,13.16594295,.0002147,87.9090,230.2394,107.9439,252.1927,0,U,56721,999,15075,-.17799544E-3,-.55E-6,0
ONEWEB-0694,2023-068N,2026-06-10T03:25:30.288288,13.16594880,.00025191,87.9110,230.1556,102.5279,257.6133,0,U,56722,999,15084,-.69730048E-4,-.14E-6,0
ONEWEB-0696,2023-068P,2026-06-09T19:04:55.439040,13.15547655,.00014809,87.8999,260.6945,97.0967,263.0332,0,U,56723,999,14839,-.40557088E-3,-.14E-5,0
ONEWEB-0703,2023-068Q,2026-06-10T00:47:13.118208,13.15547905,.00013141,87.8998,260.6284,79.9617,280.1662,0,U,56724,999,14831,.2781951E-3,.118E-5,0
