ONEWEB-0578             
1 56067U 23043X   26160.98715217 -.00000003  00000+0 -38626-4 0  9994
2 56067  87.9258 245.4048 0002357 100.8262 259.3137 13.21824315157281
ONEWEB-0579             
1 56068U 23043Y   26160.97876126  .00000010  00000+0 -69310-5 0  9993
2 56068  87.9263 245.4030 0001739  99.3286 260.8045 13.21826074157290
ONEWEB-0581             
1 56069U 23043Z   26161.15852771  .00000026  00000+0  34606-4 0  9990
2 56069  87.9097 230.1798 0002253  84.1787 275.9601 13.16596094158036
ONEWEB-0609             
1 56070U 23043AA  26161.03199278  .00000142  00000+0  34412-3 0  9998
2 56070  87.8998 260.6373 0001987 103.3420 256.7932 13.15548570155491
ONEWEB-0613             
1 56071U 23043AB  26161.02961086  .00000120  00000+0  28522-3 0  9993
2 56071  87.8999 260.6500 0001709 104.7009 255.4311 13.15549628155497
ONEWEB-0630             
1 56072U 23043AC  26161.02484415  .00000086  00000+0  19446-3 0  9996
2 56072  87.9002 260.6222 0001713 103.5310 256.6012 13.15550273155480
ONEWEB-0632             
1 56073U 23043AD  26161.02011033 -.00001354  00000+0 -36305-2 0  9992
2 56073  87.8999 260.6404 0001901  96.4402 263.6945 13.15554376155489
ONEWEB-0633             
1 56074U 23043AE  26161.01375424 -.00000034  00000+0 -12420-3 0  9996
2 56074  87.9007 260.6173 0001692 111.9335 248.1975 13.15548333155464
ONEWEB-0634             
1 56075U 23043AF  26160.99951224 -.00000104  00000+0 -31099-3 0  9992
2 56075  87.9000 260.6613 0002235 106.5182 253.6194 13.15547986155457
ONEWEB-0635             
1 56076U 23043AG  26160.99474824 -.00000171  00000+0 -48723-3 0  9995
2 56076  87.9008 260.6238 0002013  92.8625 267.2736 13.15550405155488
ONEWEB-0636             
1 56077U 23043AH  26160.98683803 -.00000177  00000+0 -50537-3 0  9996
2 56077  87.9005 260.6321 0002039  94.6862 265.4501 13.15549306155466
ONEWEB-0637             
1 56078U 23043AJ  26160.98050245 -.00000003  00000+0 -42645-4 0  9995
2 56078  87.9003 260.6502 0002275  98.6906 261.4482 13.15548601155484
ONEWEB-0647             
1 56079U 23043AK  26160.97575131 -.00000026  00000+0 -10211-3 0  9999
2 56079  87.9002 260.6635 0001844  96.8349 263.2991 13.15548918155478
ONEWEB-0651             
1 56080U 23043AL  26161.27522449  .00000199  00000+0  49507-3 0  9998
2 56080  87.9000 260.5976 0002129  95.4476 264.6897 13.15548909156716
ONEWEB-0718             
1 56081U 23043AM  26160.81410810  .00000047  00000+0  91936-4 0  9992
2 56081  87.9000 260.6701 0002228 112.7127 247.4239 13.15550919155464
ONEWEB-0561             
1 56710U 23068A   26161.07650614 -.00032655  00000+0 -80442-1 0  9994
2 56710  87.9188 275.8602 0001611  63.0827 297.0471 13.20933111148565
ONEWEB-0668             
1 56711U 23068B   26160.90522156 -.00000070  00000+0 -21793-3 0  9997
2 56711  87.9100 230.2182 0002560 103.3653 256.7764 13.16594218150822
ONEWEB-0676             
1 56712U 23068C   26161.14111261 -.00000219  00000+0 -60556-3 0  9991
2 56712  87.9101 230.1774 0002140  89.3711 270.7665 13.16594264150773
ONEWEB-0677             
1 56713U 23068D   26161.06473890 -.00000015  00000+0 -69764-4 0  9997
2 56713  87.9190 275.8542 0002320  95.1718 264.9681 13.20769590148864
ONEWEB-0678             
1 56714U 23068E   26161.01060063 -.00000040  00000+0 -13956-3 0  9996
2 56714  87.9007 260.6225 0001669  99.3890 260.7429 13.15548155148347
ONEWEB-0679             
1 56715U 23068F   26161.17595987  .00000087  00000+0  19295-3 0  9993
2 56715  87.9102 230.1621 0002595  94.8661 265.2766 13.16593920150800
ONEWEB-0680             
1 56716U 23068G   26161.20751920 -.00000021  00000+0 -81782-4 0  9990
2 56716  87.9262 245.3590 0002634 102.3507 257.7922 13.21827382150177
ONEWEB-0681             
1 56717U 23068H   26161.18817347  .00000096  00000+0  20022-3 0  9993
2 56717  87.9258 245.3645 0002256  74.2566 285.8817 13.21826711150165
ONEWEB-0682             
1 56718U 23068J   26160.80620670  .00000069  00000+0  15020-3 0  9995
2 56718  87.9007 260.6639 0002501 103.1450 256.9959 13.15548549148489
ONEWEB-0683             
1 56719U 23068K   26160.98208807  .00000011  00000+0 -60742-5 0  9990
2 56719  87.9012 260.6282 0002200 105.3457 254.7916 13.15548629148474
ONEWEB-0684             
1 56720U 23068L   26160.99000392 -.00000149  00000+0 -42887-3 0  9993
2 56720  87.9008 260.6168 0001055 140.7859 219.3348 13.15548335148302
ONEWEB-0686             
1 56721U 23068M   26160.90839113 -.00000055  00000+0 -17800-3 0  9999
2 56721  87.9090 230.2394 0002147 107.9439 252.1927 13.16594295150757
ONEWEB-0694             
1 56722U 23068N   26161.14271167 -.00000014  00000+0 -69730-4 0  9991
2 56722  87.9110 230.1556 0002519 102.5279 257.6133 13.16594880150845
ONEWEB-0696             
1 56723U 23068P   26160.79508610 -.00000140  00000+0 -40557-3 0  9993
2 56723  87.8999 260.6945 0001480  97.0967 263.0332 13.15547655148394
ONEWEB-0703             
1 56724U 23068Q   26161.03279072  .00000118  00000+0  27820-3 0  9990
2 56724  87.8998 260.6284 0001314  79.9617 280.1662 13.15547905148313
